#dP2022  3  4  0  0  0.00000000      96 __u+U ITR00 FIT  IAC
## 2199 432000.00000000   900.00000000 59642 0.0000000000000
+  127   C01C02C03C04C05C06C07C08C09C10C11C12C13C14C16C19C20
+        C21C22C23C24C25C26C27C28C29C30C32C33C34C35C36C37C38
+        C39C40C41C42C43C44C45C46C59C60E01E02E03E04E05E07E08
+        E09E10E11E12E13E14E15E18E19E21E25E26E27E30E31E33E34
+        E36G01G02G03G04G05G06G07G08G09G10G11G12G13G14G15G16
+        G17G18G19G20G21G22G23G24G25G26G27G28G29G30G31G32J01
+        J02J03R01R02R03R04R05R06R07R08R09R10R11R12R13R14R15
+        R17R18R19R20R21R22R23R24  0  0  0  0  0  0  0  0  0
++        15 14 14 14 14  9  9  9  8  9  8  8  8  8  9  7  7
++         7  7  7  7  7  7  7  7  7  7  7  7  7  7  7  7  8
++         8  8  7  7  7  7  7  7 16 14  4  4  4  4  4  4  4
++         4  5  4  4  4  5  4  4  4  4  4  4  4  4  5  4  6
++         5  3  4  3  3  4  3  4  4  4  3  4  3  4  4  4  4
++         4  4  3  4  3  3  4  4  3  4  4  5  4  4  3  3  8
++         8  8  7  6  6  6  6 13  6  6  6 13  8  6  7  6  6
++         6  6  7  7  6  7 13  6  0  0  0  0  0  0  0  0  0
%c M  cc GPS ccc cccc cccc cccc cccc ccccc ccccc ccccc ccccc
%c cc cc ccc ccc cccc cccc cccc cccc ccccc ccccc ccccc ccccc
%f  0.0000000  0.000000000  0.00000000000  0.000000000000000
%f  0.0000000  0.000000000  0.00000000000  0.000000000000000
%i    0    0    0    0      0      0      0      0         0
%i    0    0    0    0      0      0      0      0         0
/* INFORMATION & ANALYSIS CENTER (IAC)            RAPID DATA
/* S/V CLOCKS ARE ALIGNED TO GNSS TIME                      
/* G:C1WC2W R:C1PC2P E:C1XC5X C:C2IC6I J:C1CC2S             
/* PCV:IGS14_2196 OL/AL:FES2004  NONE     YN ORB:CoN CLK:CoN
*  2022 03 04 19 45  0.00000000
PC01 -34316.312812  24467.035887     77.338382    -64.331750
PC02   4432.238014  41963.565184   1270.363419    259.302237
PC03 -14858.301752  39482.217985    819.294269    901.443716
PC04 -39634.844345  14359.349366   -270.865416     56.467130
PC05  21993.877633  36009.590408    982.385005   -407.623165
PC06  -4817.466809  38304.027157  17202.179868   -449.706425
PC07 -10211.699507  25143.357183 -32278.817764    176.256881
PC08 -20121.061436  32720.090037  17231.078189    174.901100
PC09   1170.988092  41780.688637   7616.481752   -575.229424
PC10  -1689.730451  26802.490867 -32219.908441    139.347668
PC11 -13790.844384   7648.831165 -22954.173888   -171.856298
PC12 -15715.396933 -12774.244014 -19163.967478    682.012310
PC13 -11960.997181  32780.735824  23613.867142    -99.351420
PC14 -23702.266799   3371.331218  14409.503201    451.971093
PC16  -5188.293275  37681.126759  18613.353472     95.371869
PC19  16265.728880  -9816.141253 -20404.693883    889.836057
PC20  26705.261600   2429.653494  -7656.579568   -837.373850
PC21 -21744.439846 -14010.960433 -10474.882060   -927.975502
PC22  -4023.352441 -16893.471344 -21843.321433   -959.332096
PC23  -6221.285653  21810.435438 -16257.731269   -948.987736
PC24 -22161.613917   4726.363572  16252.528179   -945.202781
PC25 -19444.459883  19981.409978   -867.095316   -770.712921
PC26 -12231.074693 -10741.545980  22651.065820    770.789957
PC27  13553.394070  20879.716200  12615.277786    686.746375
PC28   2957.635397  27397.652211  -4404.142140     39.639976
PC29   9018.885328 -18099.320739  19221.503583    523.173612
PC30  16600.812700   2363.678385  22305.476987    494.531875
PC32  21777.579751  13894.236344  10566.029745   -971.875913
PC33 -16312.964560   9900.270274  20377.279976   -962.272177
PC34 -16481.444429  -1205.146117 -22492.568205   -455.728858
PC35  -3346.419429 -27196.604239   5162.971170    166.974026
PC36  20153.189367 -19305.086296    395.329569   -928.130100
PC37  11081.185528  11887.917182 -22676.991842   -948.581187
PC38 -23747.333152  33172.652979  10371.900274    215.628595
PC39  -7877.054807  33658.265779  24271.266636     34.848729
PC40 -14206.261223  18798.476932 -34998.752995    249.481908
PC41   3528.728890  16880.056818  21994.984679   -948.612779
PC42 -26914.166863  -3017.443079   6812.930839   -935.089598
PC43  -9568.449252  17535.826460 -19504.120137   -938.097768
PC44 -14288.854667 -20472.360526 -12438.620681    584.144846
PC45   6066.556073 -21705.313289  16467.819196    696.095783
PC46  22517.524552  -6124.605848 -15338.204379   -200.134985
PC59 -32318.650247  27073.148894    517.977956     -0.219226
PC60   7296.928405  41530.814907   -313.065269     -0.351901
PE01  28206.735433   -720.836578  -8971.931349   -590.471564
PE02 -28229.563769    834.908315   8818.282735    284.108453
PE03 -23652.139366  -8461.782132  15664.264656   -533.949913
PE04  14084.330013  -9875.647026 -24082.162324   -977.449231
PE05 -19491.286700 -22173.833198  -2126.698691   -203.475474
PE07   4041.181452  22798.413379  18444.265173   -645.037040
PE08 -13643.193975  10174.857093  24220.461880   -489.606451
PE09  -4438.327366 -22789.952966 -18362.172318   5339.857100
PE10  11259.498814 -26706.337622   6004.469941   -498.634150
PE11   5046.842130 -28834.522441  -4317.334063   4312.021217
PE12  15590.028215 -20350.696244  14779.979829   4729.931533
PE13  -5431.439673  28874.046434   3662.230491    427.018355
PE14 -24695.249963 -11875.527653 -17105.711507  -1766.609172
PE15 -15530.139331  20314.396811 -14910.659541    759.757812
PE18  17765.746208  11290.176228  10856.789790  -1722.849238
PE19  23857.461028  10732.883377 -13848.974043   -767.071813
PE21  16277.552542  11325.599244 -21985.363809   -720.622111
PE25 -16011.608600 -11467.737066  22093.120777   -565.658202
PE26   8471.463356  19654.438914  20457.160630   -874.227081
PE27  -5668.795909  17621.894913 -23096.477022   -245.714912
PE30 -24800.724261  12929.152795  -9674.870408   -321.986326
PE31  24118.975247 -13501.426034  10606.197963   -493.050611
PE33  16430.884485    214.661673  24626.823358   -458.880743
PE34 -16479.937652     68.712132 -24589.794994   -505.001510
PE36  -7790.411087 -20411.321870 -19957.984675   -340.663618
PG01  13849.354963 -21595.732216   5834.587303    416.892193
PG02 -16077.081972   3894.321667 -20154.369327   -651.819559
PG03  17084.455595 -12838.000917 -15803.033949   -148.556187
PG04   7423.251173 -14748.454925 -20780.625101   -185.857981
PG05 -26086.833210   5165.816245   1469.831345    -73.512682
PG06  -9115.530125 -13581.446435 -20839.273657    220.502239
PG07   3439.761629 -24493.496769   9357.374239    314.175140
PG08  15034.725712  -4798.653605  21382.946089    -58.552467
PG09  -3245.685667 -21649.582909 -15084.896443   -351.444156
PG10  12964.473811  12165.717233  19968.591286   -337.227992
PG11 -16733.362374   1412.559343 -20579.454720    -71.118689
PG12 -20259.586340  10395.765247 -13826.851422   -179.922214
PG13 -17625.837919  -4559.489812  19243.894404    271.407395
PG14 -11580.936165 -13282.227238  19886.797123    -90.499011
PG15 -14434.202003   7253.559416  20715.589927    -79.310772
PG16  26737.197395    783.068094  -2158.297127   -476.775074
PG17 -13347.016384 -22879.880607   1972.286621    582.932238
PG18  -4331.075804  24523.153536   9083.269944    227.279965
PG19 -16819.404370 -19662.904550  -6675.879775    126.702538
PG20 -25067.605829    644.189568  -8372.336918    516.443823
PG21  16455.721534 -13731.960515  15918.541385    158.944195
PG22  17903.029726  17684.888471  -8377.963909    222.500149
PG23    298.353283  15141.826071  21804.688075     -3.980115
PG24 -14496.508299  19441.547416  10042.462288    270.758708
PG25  -7481.074854  15448.280761 -20482.988858    293.791749
PG26  22220.861809   6245.697818 -13492.082562    188.138223
PG27  19449.807262   7159.128416  16634.882611    142.461292
PG28 -18876.813179 -10461.484229  15846.051293    387.648995
PG29    -65.881704  20689.400244 -16670.521087   -487.419434
PG30  -3197.941736 -21065.624721  15772.845335   -516.866598
PG31  11437.004539  11149.582515 -21278.701654   -167.442292
PG32  16989.403799  20465.889539  -1724.149245    -78.525935
PJ01 -27895.440643  19844.059957  29512.561411    216.567911
PJ02 -35779.103849  18058.577620  -8522.500569     -1.741937
PJ03 -20129.830998  28082.611274 -19538.315866     -0.811123
PR01  21963.230707   4113.369974 -12287.574110      7.179560
PR02   7699.373986  -8126.312815 -22879.191044    511.499628
PR03  -9895.929193 -14802.063058 -18192.904409     52.529964
PR04 -21628.086597 -13062.059212  -3434.795698    130.403102
PR05 -21389.006644  -4213.178805  13238.676279     88.782221
PR06  -6438.150742   9132.574854  22923.278075    -35.819904
PR07  10573.206014  14964.243754  17811.401892     32.292196
PR08  21676.410046  13038.468516   3453.119648    -63.859938
PR09 -17269.482474  16728.703151  -8612.087815     42.613398
PR10  -3998.822749  14517.084439 -20580.400330    -80.275992
PR11  12760.180751   3862.248400 -21738.504356     44.332495
PR12  22012.695771  -9184.491426  -9054.967900     17.345891
PR13  18027.471551 -16385.634213   7549.362205    -19.025214
PR14   2746.574074 -14042.500709  21118.684477     75.034631
PR15 -13391.052903  -3568.271712  21427.056718     97.781470
PR17  -2214.300909 -25310.702335  -2435.341966    506.818274
PR18  -8437.357654 -16515.542367 -17466.181044    109.250686
PR19 -10337.563676   -581.019418 -23309.716005   -180.355116
PR20  -6478.700867  19598.573555 -15010.628749    -66.078208
PR21   2739.891047  25045.624715   3927.391051   -282.699314
PR22   8530.407526  15921.723245  18050.032365   -168.481741
PR23   9907.719328  -6254.553815  22651.116887    -32.386134
PR24   6085.176919 -20193.294038  14371.767441     82.871558
EOF
